FLOCK 4G-36             
1 62675U 25009BU  26068.70726311  .00013573  00000+0  51122-3 0  9993
2 62675  97.4053 151.0513 0003474 324.2456  35.8550 15.27209548 63701
STARLINK-32762          
1 62748U 25014P   26068.58471369  .00027589  00000+0  10081-2 0  9996
2 62748  43.0000 158.2437 0001379 259.5202 100.5494 15.27587667 63209
